IDEFIX & ARIANE 42P R/B 
1 27422U 02021B   26055.42078116  .00000283  00000+0  12419-3 0  9991
2 27422  98.5858 354.1869 0010886 223.1821 136.8509 14.31015559242127
AQUA                    
1 27424U 02022A   26055.48491343  .00001078  00000+0  22506-3 0  9992
2 27424  98.4150  22.6119 0000919  48.6691  63.1068 14.61940343266803
CZ-4B R/B               
1 27432U 02024C   26055.13114942  .00000023  00000+0  34466-4 0  9990
2 27432  98.8872 108.6042 0051028  62.2489 323.2269 14.14544903227328
MIDORI II (ADEOS-II)    
1 27597U 02056A   26055.50274947  .00000263  00000+0  12140-3 0  9990
2 27597  98.7744  13.8914 0001995  61.2642 298.8740 14.29273701208411
H-2A R/B                
1 27601U 02056E   26055.52774572  .00000283  00000+0  11392-3 0  9997
2 27601  98.3177  16.3964 0069677 199.9324 273.7598 14.33750765212225
CZ-4B R/B               
1 28059U 03049C   26055.45511681  .00000419  00000+0  10780-3 0  9991
2 28059  98.6866  49.8422 0046994 272.2488  87.3327 14.55004985184670
CZ-2C R/B               
1 28222U 04012C   26055.16989357  .00048840  00000+0  53901-3 0  9993
2 28222  97.7264 119.1976 0014090   3.8799 356.2565 15.62819312202168
SL-16 R/B               
1 28353U 04021B   26055.51663153  .00000121  00000+0  87665-4 0  9995
2 28353  70.9989 260.1392 0003397  39.3865 320.7504 14.14599042120973
CZ-4B R/B               
1 28415U 04035C   26055.36162219  .00008659  00000+0  30720-3 0  9992
2 28415  97.3529  89.7656 0032678  19.2746 340.9722 15.28792067177877
CZ-2C R/B               
1 28480U 04046B   26055.37330545  .00000118  00000+0  59065-4 0  9992
2 28480  98.1989 331.1851 0139067 193.7898 165.9470 14.26987132106609
ARIANE 5 R/B            
1 28499U 04049H   26055.42837134  .00000824  00000+0  97111-4 0  9995
2 28499  98.2606 223.3912 0084863  34.8094 325.8630 14.85237559143828
CZ-2D R/B               
1 28738U 05024B   26055.49105741  .00037837  00000+0  48838-3 0  9999
2 28738  97.3617  70.1667 0007462  78.4118 281.7975 15.58860801137729
